ONEWEB-0381             
1 49307U 21090AE  25365.28128049  .00000098  00000+0  20960-3 0  9996
2 49307  87.9221 307.9280 0001908  84.7432 275.3919 13.20772577207667
ONEWEB-0382             
1 49308U 21090AF  25365.26863754  .00000101  00000+0  21679-3 0  9997
2 49308  87.9221 307.9263 0002047  81.0997 279.0368 13.20769463207658
ONEWEB-0383             
1 49309U 21090AG  25365.26791852  .00000171  00000+0  42684-3 0  9993
2 49309  87.9013 323.1486 0001921  79.3075 280.8271 13.14501078205539
ONEWEB-0384             
1 49310U 21090AH  25365.26166518  .00000095  00000+0  20269-3 0  9990
2 49310  87.9231 307.9655 0002287  80.6481 279.4911 13.20800856207667
ONEWEB-0385             
1 49311U 21090AJ  25365.26076438  .00000116  00000+0  25295-3 0  9990
2 49311  87.9220 307.9324 0001893  80.5040 279.6307 13.20771411207633
ONEWEB-0386             
1 49312U 21090AK  25365.27812583  .00000089  00000+0  18663-3 0  9991
2 49312  87.9220 307.9134 0002026  78.9175 281.2187 13.20772053207652
ONEWEB-0387             
1 49313U 21090AL  25365.26234337  .00000078  00000+0  15960-3 0  9991
2 49313  87.9212 307.9606 0001775  88.1115 272.0221 13.20771905207657
ONEWEB-0388             
1 49314U 21090AM  25364.94293749  .00000068  00000+0  13849-3 0  9991
2 49314  87.9209 338.4507 0001941  85.1572 274.9783 13.19725806204223
ONEWEB-0389             
1 50469U 21132A   25365.15197376  .00000080  00000+0  17312-3 0  9997
2 50469  87.9094  39.2779 0002059 104.3522 255.7838 13.17649867195952
ONEWEB-0390             
1 50470U 21132B   25365.15364552  .00000080  00000+0  17329-3 0  9999
2 50470  87.9090  39.2787 0001518 100.8070 259.3233 13.17650958195959
ONEWEB-0391             
1 50471U 21132C   25365.15535947  .00000066  00000+0  13639-3 0  9992
2 50471  87.9089  39.2880 0002159 119.8404 240.2942 13.17649097195953
ONEWEB-0392             
1 50472U 21132D   25365.10977846  .00000099  00000+0  22055-3 0  9994
2 50472  87.9099  39.2507 0002027 106.5891 253.5463 13.17651126195982
ONEWEB-0393             
1 50473U 21132E   25365.15885455  .00000087  00000+0  19044-3 0  9995
2 50473  87.9102  39.2638 0001895 101.8339 258.3005 13.17650392195989
ONEWEB-0394             
1 50474U 21132F   25365.03138500  .00000067  00000+0  13702-3 0  9998
2 50474  87.9173   8.8299 0001899  93.3274 266.8076 13.18688207199433
ONEWEB-0395             
1 50475U 21132G   25365.16154871 -.00000311  00000+0 -91384-3 0  9998
2 50475  87.8830  54.5313 0001662 107.7533 252.3776 13.11414960193699
ONEWEB-0396             
1 50476U 21132H   25365.02479943  .00000028  00000+0  39394-4 0  9991
2 50476  87.9172   8.8432 0001834  92.1630 267.9712 13.18687163199478
ONEWEB-0397             
1 50477U 21132J   25365.03962991  .00000115  00000+0  25986-3 0  9991
2 50477  87.9172   8.8408 0001999  90.1491 269.9871 13.18684424199450
