[{"OBJECT_NAME":"ONEWEB-0381","OBJECT_ID":"2021-090AE","EPOCH":"2025-12-31T06:45:02.634336","MEAN_MOTION":13.20772577,"ECCENTRICITY":0.0001908,"INCLINATION":87.9221,"RA_OF_ASC_NODE":307.928,"ARG_OF_PERICENTER":84.7432,"MEAN_ANOMALY":275.3919,"EPHEMERIS_TYPE":0,"CLASSIFICATION_TYPE":"U","NORAD_CAT_ID":49307,"ELEMENT_SET_NO":999,"REV_AT_EPOCH":20766,"BSTAR":0.00020960027,"MEAN_MOTION_DOT":9.8e-7,"MEAN_MOTION_DDOT":0},{"OBJECT_NAME":"ONEWEB-0382","OBJECT_ID":"2021-090AF","EPOCH":"2025-12-31T06:26:50.283456","MEAN_MOTION":13.20769463,"ECCENTRICITY":0.00020478,"INCLINATION":87.9221,"RA_OF_ASC_NODE":307.9263,"ARG_OF_PERICENTER":81.0997,"MEAN_ANOMALY":279.0368,"EPHEMERIS_TYPE":0,"CLASSIFICATION_TYPE":"U","NORAD_CAT_ID":49308,"ELEMENT_SET_NO":999,"REV_AT_EPOCH":20765,"BSTAR":0.00021678838,"MEAN_MOTION_DOT":1.01e-6,"MEAN_MOTION_DDOT":0},{"OBJECT_NAME":"ONEWEB-0383","OBJECT_ID":"2021-090AG","EPOCH":"2025-12-31T06:25:48.160128","MEAN_MOTION":13.14501078,"ECCENTRICITY":0.00019217,"INCLINATION":87.9013,"RA_OF_ASC_NODE":323.1486,"ARG_OF_PERICENTER":79.3075,"MEAN_ANOMALY":280.8271,"EPHEMERIS_TYPE":0,"CLASSIFICATION_TYPE":"U","NORAD_CAT_ID":49309,"ELEMENT_SET_NO":999,"REV_AT_EPOCH":20553,"BSTAR":0.0004268363,"MEAN_MOTION_DOT":1.71e-6,"MEAN_MOTION_DDOT":0},{"OBJECT_NAME":"ONEWEB-0384","OBJECT_ID":"2021-090AH","EPOCH":"2025-12-31T06:16:47.871552","MEAN_MOTION":13.20800856,"ECCENTRICITY":0.00022871,"INCLINATION":87.9231,"RA_OF_ASC_NODE":307.9655,"ARG_OF_PERICENTER":80.6481,"MEAN_ANOMALY":279.4911,"EPHEMERIS_TYPE":0,"CLASSIFICATION_TYPE":"U","NORAD_CAT_ID":49310,"ELEMENT_SET_NO":999,"REV_AT_EPOCH":20766,"BSTAR":0.00020268848,"MEAN_MOTION_DOT":9.5e-7,"MEAN_MOTION_DDOT":0},{"OBJECT_NAME":"ONEWEB-0385","OBJECT_ID":"2021-090AJ","EPOCH":"2025-12-31T06:15:30.042432","MEAN_MOTION":13.20771411,"ECCENTRICITY":0.0001893,"INCLINATION":87.922,"RA_OF_ASC_NODE":307.9324,"ARG_OF_PERICENTER":80.504,"MEAN_ANOMALY":279.6307,"EPHEMERIS_TYPE":0,"CLASSIFICATION_TYPE":"U","NORAD_CAT_ID":49311,"ELEMENT_SET_NO":999,"REV_AT_EPOCH":20763,"BSTAR":0.00025294858,"MEAN_MOTION_DOT":1.16e-6,"MEAN_MOTION_DDOT":0},{"OBJECT_NAME":"ONEWEB-0386","OBJECT_ID":"2021-090AK","EPOCH":"2025-12-31T06:40:30.071712","MEAN_MOTION":13.20772053,"ECCENTRICITY":0.0002026,"INCLINATION":87.922,"RA_OF_ASC_NODE":307.9134,"ARG_OF_PERICENTER":78.9175,"MEAN_ANOMALY":281.2187,"EPHEMERIS_TYPE":0,"CLASSIFICATION_TYPE":"U","NORAD_CAT_ID":49312,"ELEMENT_SET_NO":999,"REV_AT_EPOCH":20765,"BSTAR":0.00018663134,"MEAN_MOTION_DOT":8.9e-7,"MEAN_MOTION_DDOT":0},{"OBJECT_NAME":"ONEWEB-0387","OBJECT_ID":"2021-090AL","EPOCH":"2025-12-31T06:17:46.467168","MEAN_MOTION":13.20771905,"ECCENTRICITY":0.00017753,"INCLINATION":87.9212,"RA_OF_ASC_NODE":307.9606,"ARG_OF_PERICENTER":88.1115,"MEAN_ANOMALY":272.0221,"EPHEMERIS_TYPE":0,"CLASSIFICATION_TYPE":"U","NORAD_CAT_ID":49313,"ELEMENT_SET_NO":999,"REV_AT_EPOCH":20765,"BSTAR":0.00015960334,"MEAN_MOTION_DOT":7.8e-7,"MEAN_MOTION_DDOT":0},{"OBJECT_NAME":"ONEWEB-0388","OBJECT_ID":"2021-090AM","EPOCH":"2025-12-30T22:37:49.799136","MEAN_MOTION":13.19725806,"ECCENTRICITY":0.0001941,"INCLINATION":87.9209,"RA_OF_ASC_NODE":338.4507,"ARG_OF_PERICENTER":85.1572,"MEAN_ANOMALY":274.9783,"EPHEMERIS_TYPE":0,"CLASSIFICATION_TYPE":"U","NORAD_CAT_ID":49314,"ELEMENT_SET_NO":999,"REV_AT_EPOCH":20422,"BSTAR":0.00013849,"MEAN_MOTION_DOT":6.8e-7,"MEAN_MOTION_DDOT":0},{"OBJECT_NAME":"ONEWEB-0389","OBJECT_ID":"2021-132A","EPOCH":"2025-12-31T03:38:50.532864","MEAN_MOTION":13.17649867,"ECCENTRICITY":0.00020591,"INCLINATION":87.9094,"RA_OF_ASC_NODE":39.2779,"ARG_OF_PERICENTER":104.3522,"MEAN_ANOMALY":255.7838,"EPHEMERIS_TYPE":0,"CLASSIFICATION_TYPE":"U","NORAD_CAT_ID":50469,"ELEMENT_SET_NO":999,"REV_AT_EPOCH":19595,"BSTAR":0.00017312179,"MEAN_MOTION_DOT":8.0e-7,"MEAN_MOTION_DDOT":0},{"OBJECT_NAME":"ONEWEB-0390","OBJECT_ID":"2021-132B","EPOCH":"2025-12-31T03:41:14.972928","MEAN_MOTION":13.17650958,"ECCENTRICITY":0.00015185,"INCLINATION":87.909,"RA_OF_ASC_NODE":39.2787,"ARG_OF_PERICENTER":100.807,"MEAN_ANOMALY":259.3233,"EPHEMERIS_TYPE":0,"CLASSIFICATION_TYPE":"U","NORAD_CAT_ID":50470,"ELEMENT_SET_NO":999,"REV_AT_EPOCH":19595,"BSTAR":0.00017329049,"MEAN_MOTION_DOT":8.0e-7,"MEAN_MOTION_DDOT":0},{"OBJECT_NAME":"ONEWEB-0391","OBJECT_ID":"2021-132C","EPOCH":"2025-12-31T03:43:43.058208","MEAN_MOTION":13.17649097,"ECCENTRICITY":0.0002159,"INCLINATION":87.9089,"RA_OF_ASC_NODE":39.288,"ARG_OF_PERICENTER":119.8404,"MEAN_ANOMALY":240.2942,"EPHEMERIS_TYPE":0,"CLASSIFICATION_TYPE":"U","NORAD_CAT_ID":50471,"ELEMENT_SET_NO":999,"REV_AT_EPOCH":19595,"BSTAR":0.00013638899,"MEAN_MOTION_DOT":6.6e-7,"MEAN_MOTION_DDOT":0},{"OBJECT_NAME":"ONEWEB-0392","OBJECT_ID":"2021-132D","EPOCH":"2025-12-31T02:38:04.858944","MEAN_MOTION":13.17651126,"ECCENTRICITY":0.00020278,"INCLINATION":87.9099,"RA_OF_ASC_NODE":39.2507,"ARG_OF_PERICENTER":106.5891,"MEAN_ANOMALY":253.5463,"EPHEMERIS_TYPE":0,"CLASSIFICATION_TYPE":"U","NORAD_CAT_ID":50472,"ELEMENT_SET_NO":999,"REV_AT_EPOCH":19598,"BSTAR":0.00022054536,"MEAN_MOTION_DOT":9.9e-7,"MEAN_MOTION_DDOT":0},{"OBJECT_NAME":"ONEWEB-0393","OBJECT_ID":"2021-132E","EPOCH":"2025-12-31T03:48:45.033120","MEAN_MOTION":13.17650392,"ECCENTRICITY":0.00018952,"INCLINATION":87.9102,"RA_OF_ASC_NODE":39.2638,"ARG_OF_PERICENTER":101.8339,"MEAN_ANOMALY":258.3005,"EPHEMERIS_TYPE":0,"CLASSIFICATION_TYPE":"U","NORAD_CAT_ID":50473,"ELEMENT_SET_NO":999,"REV_AT_EPOCH":19598,"BSTAR":0.00019044252,"MEAN_MOTION_DOT":8.7e-7,"MEAN_MOTION_DDOT":0},{"OBJECT_NAME":"ONEWEB-0394","OBJECT_ID":"2021-132F","EPOCH":"2025-12-31T00:45:11.664000","MEAN_MOTION":13.18688207,"ECCENTRICITY":0.00018998,"INCLINATION":87.9173,"RA_OF_ASC_NODE":8.8299,"ARG_OF_PERICENTER":93.3274,"MEAN_ANOMALY":266.8076,"EPHEMERIS_TYPE":0,"CLASSIFICATION_TYPE":"U","NORAD_CAT_ID":50474,"ELEMENT_SET_NO":999,"REV_AT_EPOCH":19943,"BSTAR":0.00013701681,"MEAN_MOTION_DOT":6.7e-7,"MEAN_MOTION_DDOT":0},{"OBJECT_NAME":"ONEWEB-0395","OBJECT_ID":"2021-132G","EPOCH":"2025-12-31T03:52:37.808544","MEAN_MOTION":13.1141496,"ECCENTRICITY":0.00016627,"INCLINATION":87.883,"RA_OF_ASC_NODE":54.5313,"ARG_OF_PERICENTER":107.7533,"MEAN_ANOMALY":252.3776,"EPHEMERIS_TYPE":0,"CLASSIFICATION_TYPE":"U","NORAD_CAT_ID":50475,"ELEMENT_SET_NO":999,"REV_AT_EPOCH":19369,"BSTAR":-0.00091383634,"MEAN_MOTION_DOT":-3.11e-6,"MEAN_MOTION_DDOT":0},{"OBJECT_NAME":"ONEWEB-0396","OBJECT_ID":"2021-132H","EPOCH":"2025-12-31T00:35:42.670752","MEAN_MOTION":13.18687163,"ECCENTRICITY":0.00018342,"INCLINATION":87.9172,"RA_OF_ASC_NODE":8.8432,"ARG_OF_PERICENTER":92.163,"MEAN_ANOMALY":267.9712,"EPHEMERIS_TYPE":0,"CLASSIFICATION_TYPE":"U","NORAD_CAT_ID":50476,"ELEMENT_SET_NO":999,"REV_AT_EPOCH":19947,"BSTAR":3.9393618e-5,"MEAN_MOTION_DOT":2.8e-7,"MEAN_MOTION_DDOT":0},{"OBJECT_NAME":"ONEWEB-0397","OBJECT_ID":"2021-132J","EPOCH":"2025-12-31T00:57:04.024224","MEAN_MOTION":13.18684424,"ECCENTRICITY":0.00019998,"INCLINATION":87.9172,"RA_OF_ASC_NODE":8.8408,"ARG_OF_PERICENTER":90.1491,"MEAN_ANOMALY":269.9871,"EPHEMERIS_TYPE":0,"CLASSIFICATION_TYPE":"U","NORAD_CAT_ID":50477,"ELEMENT_SET_NO":999,"REV_AT_EPOCH":19945,"BSTAR":0.00025986493,"MEAN_MOTION_DOT":1.15e-6,"MEAN_MOTION_DDOT":0}]
